{
  "type": "FeatureCollection",
  "features": [
    {
      "type": "Feature",
      "properties": {
        "norad_id": 48859,
        "name": "GPS BIII-5  (PRN 11)",
        "group": "gps-ops",
        "lat": -45.437032845434494,
        "lon": -64.53745557026086,
        "alt_km": 20162.205303994775,
        "timestamp": "2025-12-04T23:34:05.981613+00:00",
        "meta_object_name": "GPS BIII-5  (PRN 11)",
        "meta_object_id": "2021-054A",
        "meta_epoch": "2025-11-30T17:12:22.002912",
        "meta_mean_motion": 2.00553932,
        "meta_eccentricity": 0.0024653,
        "meta_inclination": 55.2606,
        "meta_ra_of_asc_node": 340.4377,
        "meta_arg_of_pericenter": 232.9477,
        "meta_mean_anomaly": 227.2059,
        "meta_ephemeris_type": 0,
        "meta_classification_type": "U",
        "meta_norad_cat_id": 48859,
        "meta_element_set_no": 999,
        "meta_rev_at_epoch": 3277,
        "meta_bstar": 0,
        "meta_mean_motion_dot": -5.5e-07,
        "meta_mean_motion_ddot": 0,
        "tle_line1": "1 48859U 21054A   25334.71692133 -.00000055  00000+0  00000+0 0  9994",
        "tle_line2": "2 48859  55.2606 340.4377 0024653 232.9477 227.2059  2.00553932 32777"
      },
      "geometry": {
        "type": "Point",
        "coordinates": [
          -64.53745557026086,
          -45.437032845434494
        ]
      }
    },
    {
      "type": "Feature",
      "properties": {
        "norad_id": 55268,
        "name": "GPS BIII-6  (PRN 28)",
        "group": "gps-ops",
        "lat": -14.769439723430173,
        "lon": 145.53421147170567,
        "alt_km": 20175.756286501197,
        "timestamp": "2025-12-04T23:34:05.981624+00:00",
        "meta_object_name": "GPS BIII-6  (PRN 28)",
        "meta_object_id": "2023-009A",
        "meta_epoch": "2025-12-03T18:12:38.807136",
        "meta_mean_motion": 2.00556312,
        "meta_eccentricity": 0.00036355,
        "meta_inclination": 55.1062,
        "meta_ra_of_asc_node": 156.1984,
        "meta_arg_of_pericenter": 358.5946,
        "meta_mean_anomaly": 180.1179,
        "meta_ephemeris_type": 0,
        "meta_classification_type": "U",
        "meta_norad_cat_id": 55268,
        "meta_element_set_no": 999,
        "meta_rev_at_epoch": 2132,
        "meta_bstar": 0,
        "meta_mean_motion_dot": 9.9e-07,
        "meta_mean_motion_ddot": 0,
        "tle_line1": "1 55268U 23009A   25337.75878249  .00000099  00000+0  00000+0 0  9996",
        "tle_line2": "2 55268  55.1062 156.1984 0003635 358.5946 180.1179  2.00556312 21327"
      },
      "geometry": {
        "type": "Point",
        "coordinates": [
          145.53421147170567,
          -14.769439723430173
        ]
      }
    },
    {
      "type": "Feature",
      "properties": {
        "norad_id": 62339,
        "name": "GPS BIII-7  (PRN 01)",
        "group": "gps-ops",
        "lat": 44.62280780817389,
        "lon": 25.95799329112951,
        "alt_km": 20168.808581282174,
        "timestamp": "2025-12-04T23:34:05.981635+00:00",
        "meta_object_name": "GPS BIII-7  (PRN 01)",
        "meta_object_id": "2024-242A",
        "meta_epoch": "2025-12-04T03:38:20.685120",
        "meta_mean_motion": 2.00567235,
        "meta_eccentricity": 0.0011725,
        "meta_inclination": 54.9261,
        "meta_ra_of_asc_node": 342.0885,
        "meta_arg_of_pericenter": 343.4986,
        "meta_mean_anomaly": 195.9397,
        "meta_ephemeris_type": 0,
        "meta_classification_type": "U",
        "meta_norad_cat_id": 62339,
        "meta_element_set_no": 999,
        "meta_rev_at_epoch": 734,
        "meta_bstar": 0,
        "meta_mean_motion_dot": -7.2e-07,
        "meta_mean_motion_ddot": 0,
        "tle_line1": "1 62339U 24242A   25338.15162830 -.00000072  00000+0  00000+0 0  9992",
        "tle_line2": "2 62339  54.9261 342.0885 0011725 343.4986 195.9397  2.00567235  7342"
      },
      "geometry": {
        "type": "Point",
        "coordinates": [
          25.95799329112951,
          44.62280780817389
        ]
      }
    },
    {
      "type": "Feature",
      "properties": {
        "norad_id": 64202,
        "name": "GPS BIII-8  (PRN 21)",
        "group": "gps-ops",
        "lat": -49.84239653949476,
        "lon": -85.29724100667228,
        "alt_km": 20181.227064930248,
        "timestamp": "2025-12-04T23:34:05.981648+00:00",
        "meta_object_name": "GPS BIII-8  (PRN 21)",
        "meta_object_id": "2025-116A",
        "meta_epoch": "2025-12-03T06:10:25.375296",
        "meta_mean_motion": 2.00558491,
        "meta_eccentricity": 0.0004994,
        "meta_inclination": 55.0986,
        "meta_ra_of_asc_node": 39.0246,
        "meta_arg_of_pericenter": 306.9577,
        "meta_mean_anomaly": 136.4728,
        "meta_ephemeris_type": 0,
        "meta_classification_type": "U",
        "meta_norad_cat_id": 64202,
        "meta_element_set_no": 999,
        "meta_rev_at_epoch": 394,
        "meta_bstar": 0,
        "meta_mean_motion_dot": -6.8e-07,
        "meta_mean_motion_ddot": 0,
        "tle_line1": "1 64202U 25116A   25337.25723814 -.00000068  00000+0  00000+0 0  9994",
        "tle_line2": "2 64202  55.0986  39.0246 0004994 306.9577 136.4728  2.00558491  3947"
      },
      "geometry": {
        "type": "Point",
        "coordinates": [
          -85.29724100667228,
          -49.84239653949476
        ]
      }
    }
  ]
}